[{"OBJECT_NAME":"TIANMU-1 07","OBJECT_ID":"2023-101A","EPOCH":"2026-03-06T13:47:20.454720","MEAN_MOTION":15.29118809,"ECCENTRICITY":0.00046097,"INCLINATION":97.2728,"RA_OF_ASC_NODE":118.5929,"ARG_OF_PERICENTER":142.4105,"MEAN_ANOMALY":217.7458,"EPHEMERIS_TYPE":0,"CLASSIFICATION_TYPE":"U","NORAD_CAT_ID":57399,"ELEMENT_SET_NO":999,"REV_AT_EPOCH":14596,"BSTAR":0.00029794732,"MEAN_MOTION_DOT":8.352e-5,"MEAN_MOTION_DDOT":0},{"OBJECT_NAME":"STARLINK-31061","OBJECT_ID":"2023-200Y","EPOCH":"2026-03-09T22:00:01.999584","MEAN_MOTION":15.26157729,"ECCENTRICITY":0.00011628,"INCLINATION":42.9986,"RA_OF_ASC_NODE":167.6991,"ARG_OF_PERICENTER":296.7948,"MEAN_ANOMALY":72.3937,"EPHEMERIS_TYPE":0,"CLASSIFICATION_TYPE":"U","NORAD_CAT_ID":58611,"ELEMENT_SET_NO":999,"REV_AT_EPOCH":573,"BSTAR":0.033916667,"MEAN_MOTION_DOT":0.00969574,"MEAN_MOTION_DDOT":0}]
